[{"OBJECT_NAME":"TWILIGHT-1 OBJECT Z","OBJECT_ID":"2026-004Z","EPOCH":"2026-03-09T21:26:05.365824","MEAN_MOTION":14.88483265,"ECCENTRICITY":0.00044133,"INCLINATION":97.8002,"RA_OF_ASC_NODE":69.141,"ARG_OF_PERICENTER":91.4966,"MEAN_ANOMALY":268.6757,"EPHEMERIS_TYPE":0,"CLASSIFICATION_TYPE":"U","NORAD_CAT_ID":67386,"ELEMENT_SET_NO":999,"REV_AT_EPOCH":852,"BSTAR":0.00035192428,"MEAN_MOTION_DOT":3.215e-5,"MEAN_MOTION_DDOT":0},{"OBJECT_NAME":"PSLV R\/B","OBJECT_ID":"2014-034F","EPOCH":"2026-03-09T13:14:51.880704","MEAN_MOTION":14.84143321,"ECCENTRICITY":0.00191696,"INCLINATION":98.3003,"RA_OF_ASC_NODE":286.336,"ARG_OF_PERICENTER":298.7666,"MEAN_ANOMALY":61.1621,"EPHEMERIS_TYPE":0,"CLASSIFICATION_TYPE":"U","NORAD_CAT_ID":40058,"ELEMENT_SET_NO":999,"REV_AT_EPOCH":63129,"BSTAR":0.00014545883,"MEAN_MOTION_DOT":1.159e-5,"MEAN_MOTION_DDOT":0}]
